GOES 1 [-]              
1 08366U 75100A   14300.27386605 -.00000246  00000-0  00000+0 0  9746
2 08366  13.3039 329.5084 0006011 211.6661 232.2859  1.00277095142588
GOES 2 [-]              
1 10061U 77048A   14299.30045576  .00000056  00000-0  00000+0 0  2497
2 10061  14.2843 338.1564 0013766 279.2796  98.5915  0.99397260 81255
GOES 3 [P]              
1 10953U 78062A   14300.22233736 -.00000101  00000-0  00000+0 0  8235
2 10953  14.3085 341.6637 0005476 159.4725 227.7589  1.00265819 86305
GOES 4 [-]              
1 11964U 80074A   14297.66428102  .00000004  00000-0  00000+0 0  4956
2 11964  14.9647 345.3809 0028362 346.8903 331.2468  0.99230047 85420
GOES 5 [-]              
1 12472U 81049A   14300.22810556 -.00000287  00000-0  00000+0 0  2995
2 12472  14.7725 355.4354 0006538 180.2310 233.4838  1.00252892 80345
GOES 6 [-]              
1 14050U 83041A   14300.24406012 -.00000269  00000-0  00000+0 0  3073
2 14050  14.8185   0.2628 0005883 150.5097 257.8252  1.00272350173448
GOES 7 [-]              
1 17561U 87022A   14297.74834325  .00000116  00000-0  00000+0 0  5733
2 17561  14.7873  16.2771 0001806 203.2667 119.7593  0.99897211 84482
GOES 8 [-]              
1 23051U 94022A   14297.86095366  .00000061  00000-0  00000+0 0  1903
2 23051   9.9754  48.8513 0007753 185.0818 177.5886  0.98902572 82058
GOES 9 [-]              
1 23581U 95025A   14300.23708800 -.00000135  00000-0  00000+0 0  4967
2 23581   9.4999  47.7274 0005297  94.1098 275.4422  0.98800002 70770
GOES 10 [-]             
1 24786U 97019A   14299.13963207 -.00000247  00000-0  00000+0 0  4032
2 24786   7.7749  51.6207 0030836 131.3308 226.3187  0.99125271 63928
GOES 11 [-]             
1 26352U 00022A   14300.34016435 -.00000053  00000-0  00000+0 0  7835
2 26352   2.9723  86.4776 0005776  84.8691 262.2907  0.99040699 52902
GOES 12 [-]             
1 26871U 01031A   14300.27033736 -.00000232  00000-0  00000+0 0  7229
2 26871   4.5182  68.4001 0008162 186.1234 193.2971  0.99138353 48596
GOES 13 [+]             
1 29155U 06018A   14300.35126515 -.00000253  00000-0  00000+0 0  3830
2 29155   0.1019  98.8150 0001586  59.7836 288.7939  1.00267595 30895
GOES 14 [S]             
1 35491U 09033A   14299.56914579 -.00000088  00000-0  00000+0 0  6823
2 35491   0.2645 264.0000 0013153 302.2532 288.0037  1.00273454 19546
GOES 15 [+]             
1 36411U 10008A   14300.43785091  .00000084  00000-0  00000+0 0  3376
2 36411   0.2901 263.8110 0002852 336.2173 178.2023  1.00279119 17069
